JILIN-1 GAOFEN 03D51    
1 54252U 22155B   26187.87908922  .00049649  00000+0  52184-3 0  9996
2 54252  97.6249 334.2310 0003903 263.4175  96.6639 15.64181368202822
JILIN-1 GAOFEN 03D53    
1 54253U 22155C   26187.86681286  .00028931  00000+0  44764-3 0  9993
2 54253  97.6240 329.5579 0004576 287.1772  72.8980 15.54022231202547
JILIN-1 GAOFEN 03D54    
1 54254U 22155D   26186.25042549  .04646595  26402-5  79772-3 0  9992
2 54254  97.6143 342.1130 0012127 265.6441  94.3468 16.32834755203202
JILIN-1 GAOFEN 03D52    
1 54255U 22155E   26187.85258043  .00039909  00000+0  46726-3 0  9992
2 54255  97.6224 332.4536 0003337 283.3656  76.7229 15.61448061202775
JILIN-1 GAOFEN 03D50    
1 54690U 22167J   26187.81920763  .00009254  00000+0  27542-3 0  9994
2 54690  97.6853 356.4712 0005908  48.2338 311.9408 15.34939128198360
JILIN-1 GAOFEN 03D47    
1 54692U 22167L   26187.81920409  .00008872  00000+0  27005-3 0  9992
2 54692  97.6950 358.2076 0008414  56.0765 304.1276 15.34226511198350
JILIN-1 GAOFEN 03D49    
1 54694U 22167N   26187.85489439  .00010270  00000+0  27774-3 0  9999
2 54694  97.6827 358.8670 0006520  73.8890 286.3071 15.37901437198515
JILIN-1 GAOFEN 03D48    
1 54695U 22167P   26187.81572442  .00009492  00000+0  27592-3 0  9995
2 54695  97.6898 358.1735 0007083  56.5665 303.6254 15.35666538198404
JILIN GAOFEN OBJECT A   
1 68691U 26080A   26187.77966256  .00003644  00000+0  23333-3 0  9991
2 68691  97.6601 263.2709 0011907   4.6722 355.4615 15.09144054 12611
JILIN GAOFEN OBJECT B   
1 68692U 26080B   26187.82744931  .00004828  00000+0  30825-3 0  9991
2 68692  97.6586 263.3354 0015542 343.1847  16.8864 15.09052939 12624
JILIN GAOFEN OBJECT C   
1 68693U 26080C   26187.84459345  .00003832  00000+0  24525-3 0  9990
2 68693  97.6588 263.3208 0012730 345.3761  14.7097 15.09128172 12628
JILIN GAOFEN OBJECT D   
1 68694U 26080D   26187.82750493  .00002938  00000+0  18986-3 0  9997
2 68694  97.6653 263.4038 0017183 355.0118   5.0937 15.08908813 12606
JILIN GAOFEN OBJECT E   
1 68695U 26080E   26187.81077562  .00004556  00000+0  29011-3 0  9995
2 68695  97.6635 263.4062 0013211   7.2688 352.8730 15.09204226 12589
JILIN GAOFEN OBJECT F   
1 68696U 26080F   26187.80959749  .00004442  00000+0  28313-3 0  9999
2 68696  97.6606 263.3771 0014333  12.8550 347.3041 15.09168452 12584
JILIN GAOFEN OBJECT G   
1 68697U 26080G   26187.86192672  .00004016  00000+0  25653-3 0  9991
2 68697  97.6650 263.5089 0014194   6.2558 353.8845 15.09152919 12594
JILIN GAOFEN OBJECT H   
1 68698U 26080H   26182.82007068  .00007709  00000+0  48996-3 0  9994
2 68698  97.6647 258.4665 0015405  23.9908 336.2035 15.09020248 11836
