{"fetched_at":"2026-07-07T07:58:37.854Z","source":"https://celestrak.org/NORAD/elements/gp.php?NAME=JILIN&FORMAT=JSON","constellation":"jilin-1-gaofen","records":[{"OBJECT_NAME":"JILIN-1 GAOFEN 03D51","OBJECT_ID":"2022-155B","EPOCH":"2026-07-06T21:05:53.308608","CLASSIFICATION_TYPE":"U","MEAN_MOTION":15.64181368,"ECCENTRICITY":0.0003903,"INCLINATION":97.6249,"RA_OF_ASC_NODE":334.231,"ARG_OF_PERICENTER":263.4175,"MEAN_ANOMALY":96.6639,"EPHEMERIS_TYPE":0,"NORAD_CAT_ID":54252,"ELEMENT_SET_NO":999,"REV_AT_EPOCH":20282,"BSTAR":0.00052184,"MEAN_MOTION_DOT":0.00049649,"MEAN_MOTION_DDOT":0},{"OBJECT_NAME":"JILIN-1 GAOFEN 03D53","OBJECT_ID":"2022-155C","EPOCH":"2026-07-06T20:48:12.631104","CLASSIFICATION_TYPE":"U","MEAN_MOTION":15.54022231,"ECCENTRICITY":0.0004576,"INCLINATION":97.624,"RA_OF_ASC_NODE":329.5579,"ARG_OF_PERICENTER":287.1772,"MEAN_ANOMALY":72.898,"EPHEMERIS_TYPE":0,"NORAD_CAT_ID":54253,"ELEMENT_SET_NO":999,"REV_AT_EPOCH":20254,"BSTAR":0.00044764,"MEAN_MOTION_DOT":0.00028931,"MEAN_MOTION_DDOT":0},{"OBJECT_NAME":"JILIN-1 GAOFEN 03D54","OBJECT_ID":"2022-155D","EPOCH":"2026-07-05T06:00:36.762336","CLASSIFICATION_TYPE":"U","MEAN_MOTION":16.32834755,"ECCENTRICITY":0.00121273,"INCLINATION":97.6143,"RA_OF_ASC_NODE":342.113,"ARG_OF_PERICENTER":265.6441,"MEAN_ANOMALY":94.3468,"EPHEMERIS_TYPE":0,"NORAD_CAT_ID":54254,"ELEMENT_SET_NO":999,"REV_AT_EPOCH":20320,"BSTAR":0.00079772039,"MEAN_MOTION_DOT":0.04646595,"MEAN_MOTION_DDOT":0.000002640223},{"OBJECT_NAME":"JILIN-1 GAOFEN 03D52","OBJECT_ID":"2022-155E","EPOCH":"2026-07-06T20:27:42.949152","CLASSIFICATION_TYPE":"U","MEAN_MOTION":15.61448061,"ECCENTRICITY":0.0003337,"INCLINATION":97.6224,"RA_OF_ASC_NODE":332.4536,"ARG_OF_PERICENTER":283.3656,"MEAN_ANOMALY":76.7229,"EPHEMERIS_TYPE":0,"NORAD_CAT_ID":54255,"ELEMENT_SET_NO":999,"REV_AT_EPOCH":20277,"BSTAR":0.00046726,"MEAN_MOTION_DOT":0.00039909,"MEAN_MOTION_DDOT":0},{"OBJECT_NAME":"JILIN-1 GAOFEN 03D50","OBJECT_ID":"2022-167J","EPOCH":"2026-07-06T19:39:39.539232","CLASSIFICATION_TYPE":"U","MEAN_MOTION":15.34939128,"ECCENTRICITY":0.0005908,"INCLINATION":97.6853,"RA_OF_ASC_NODE":356.4712,"ARG_OF_PERICENTER":48.2338,"MEAN_ANOMALY":311.9408,"EPHEMERIS_TYPE":0,"NORAD_CAT_ID":54690,"ELEMENT_SET_NO":999,"REV_AT_EPOCH":19836,"BSTAR":0.00027542,"MEAN_MOTION_DOT":0.00009254,"MEAN_MOTION_DDOT":0},{"OBJECT_NAME":"JILIN-1 GAOFEN 03D47","OBJECT_ID":"2022-167L","EPOCH":"2026-07-06T19:39:39.233376","CLASSIFICATION_TYPE":"U","MEAN_MOTION":15.34226511,"ECCENTRICITY":0.0008414,"INCLINATION":97.695,"RA_OF_ASC_NODE":358.2076,"ARG_OF_PERICENTER":56.0765,"MEAN_ANOMALY":304.1276,"EPHEMERIS_TYPE":0,"NORAD_CAT_ID":54692,"ELEMENT_SET_NO":999,"REV_AT_EPOCH":19835,"BSTAR":0.00027005,"MEAN_MOTION_DOT":0.00008872,"MEAN_MOTION_DDOT":0},{"OBJECT_NAME":"JILIN-1 GAOFEN 03D49","OBJECT_ID":"2022-167N","EPOCH":"2026-07-06T20:31:02.875296","CLASSIFICATION_TYPE":"U","MEAN_MOTION":15.37901437,"ECCENTRICITY":0.000652,"INCLINATION":97.6827,"RA_OF_ASC_NODE":358.867,"ARG_OF_PERICENTER":73.889,"MEAN_ANOMALY":286.3071,"EPHEMERIS_TYPE":0,"NORAD_CAT_ID":54694,"ELEMENT_SET_NO":999,"REV_AT_EPOCH":19851,"BSTAR":0.00027774,"MEAN_MOTION_DOT":0.0001027,"MEAN_MOTION_DDOT":0},{"OBJECT_NAME":"JILIN-1 GAOFEN 03D48","OBJECT_ID":"2022-167P","EPOCH":"2026-07-06T19:34:38.589888","CLASSIFICATION_TYPE":"U","MEAN_MOTION":15.35666538,"ECCENTRICITY":0.0007083,"INCLINATION":97.6898,"RA_OF_ASC_NODE":358.1735,"ARG_OF_PERICENTER":56.5665,"MEAN_ANOMALY":303.6254,"EPHEMERIS_TYPE":0,"NORAD_CAT_ID":54695,"ELEMENT_SET_NO":999,"REV_AT_EPOCH":19840,"BSTAR":0.00027592,"MEAN_MOTION_DOT":0.00009492,"MEAN_MOTION_DDOT":0},{"OBJECT_NAME":"JILIN GAOFEN OBJECT A","OBJECT_ID":"2026-080A","EPOCH":"2026-07-06T18:42:42.845184","CLASSIFICATION_TYPE":"U","MEAN_MOTION":15.09144054,"ECCENTRICITY":0.0011907,"INCLINATION":97.6601,"RA_OF_ASC_NODE":263.2709,"ARG_OF_PERICENTER":4.6722,"MEAN_ANOMALY":355.4615,"EPHEMERIS_TYPE":0,"NORAD_CAT_ID":68691,"ELEMENT_SET_NO":999,"REV_AT_EPOCH":1261,"BSTAR":0.00023333,"MEAN_MOTION_DOT":0.00003644,"MEAN_MOTION_DDOT":0},{"OBJECT_NAME":"JILIN GAOFEN OBJECT B","OBJECT_ID":"2026-080B","EPOCH":"2026-07-06T19:51:31.620384","CLASSIFICATION_TYPE":"U","MEAN_MOTION":15.09052939,"ECCENTRICITY":0.0015542,"INCLINATION":97.6586,"RA_OF_ASC_NODE":263.3354,"ARG_OF_PERICENTER":343.1847,"MEAN_ANOMALY":16.8864,"EPHEMERIS_TYPE":0,"NORAD_CAT_ID":68692,"ELEMENT_SET_NO":999,"REV_AT_EPOCH":1262,"BSTAR":0.00030825,"MEAN_MOTION_DOT":0.00004828,"MEAN_MOTION_DDOT":0},{"OBJECT_NAME":"JILIN GAOFEN OBJECT C","OBJECT_ID":"2026-080C","EPOCH":"2026-07-06T20:16:12.874080","CLASSIFICATION_TYPE":"U","MEAN_MOTION":15.09128172,"ECCENTRICITY":0.001273,"INCLINATION":97.6588,"RA_OF_ASC_NODE":263.3208,"ARG_OF_PERICENTER":345.3761,"MEAN_ANOMALY":14.7097,"EPHEMERIS_TYPE":0,"NORAD_CAT_ID":68693,"ELEMENT_SET_NO":999,"REV_AT_EPOCH":1262,"BSTAR":0.00024525,"MEAN_MOTION_DOT":0.00003832,"MEAN_MOTION_DDOT":0},{"OBJECT_NAME":"JILIN GAOFEN OBJECT D","OBJECT_ID":"2026-080D","EPOCH":"2026-07-06T19:51:36.425952","CLASSIFICATION_TYPE":"U","MEAN_MOTION":15.08908813,"ECCENTRICITY":0.0017183,"INCLINATION":97.6653,"RA_OF_ASC_NODE":263.4038,"ARG_OF_PERICENTER":355.0118,"MEAN_ANOMALY":5.0937,"EPHEMERIS_TYPE":0,"NORAD_CAT_ID":68694,"ELEMENT_SET_NO":999,"REV_AT_EPOCH":1260,"BSTAR":0.00018986,"MEAN_MOTION_DOT":0.00002938,"MEAN_MOTION_DDOT":0},{"OBJECT_NAME":"JILIN GAOFEN OBJECT E","OBJECT_ID":"2026-080E","EPOCH":"2026-07-06T19:27:31.013568","CLASSIFICATION_TYPE":"U","MEAN_MOTION":15.09204226,"ECCENTRICITY":0.0013211,"INCLINATION":97.6635,"RA_OF_ASC_NODE":263.4062,"ARG_OF_PERICENTER":7.2688,"MEAN_ANOMALY":352.873,"EPHEMERIS_TYPE":0,"NORAD_CAT_ID":68695,"ELEMENT_SET_NO":999,"REV_AT_EPOCH":1258,"BSTAR":0.00029011,"MEAN_MOTION_DOT":0.00004556,"MEAN_MOTION_DDOT":0},{"OBJECT_NAME":"JILIN GAOFEN OBJECT F","OBJECT_ID":"2026-080F","EPOCH":"2026-07-06T19:25:49.223136","CLASSIFICATION_TYPE":"U","MEAN_MOTION":15.09168452,"ECCENTRICITY":0.0014333,"INCLINATION":97.6606,"RA_OF_ASC_NODE":263.3771,"ARG_OF_PERICENTER":12.855,"MEAN_ANOMALY":347.3041,"EPHEMERIS_TYPE":0,"NORAD_CAT_ID":68696,"ELEMENT_SET_NO":999,"REV_AT_EPOCH":1258,"BSTAR":0.00028313,"MEAN_MOTION_DOT":0.00004442,"MEAN_MOTION_DDOT":0},{"OBJECT_NAME":"JILIN GAOFEN OBJECT G","OBJECT_ID":"2026-080G","EPOCH":"2026-07-06T20:41:10.468608","CLASSIFICATION_TYPE":"U","MEAN_MOTION":15.09152919,"ECCENTRICITY":0.0014194,"INCLINATION":97.665,"RA_OF_ASC_NODE":263.5089,"ARG_OF_PERICENTER":6.2558,"MEAN_ANOMALY":353.8845,"EPHEMERIS_TYPE":0,"NORAD_CAT_ID":68697,"ELEMENT_SET_NO":999,"REV_AT_EPOCH":1259,"BSTAR":0.00025653,"MEAN_MOTION_DOT":0.00004016,"MEAN_MOTION_DDOT":0},{"OBJECT_NAME":"JILIN GAOFEN OBJECT H","OBJECT_ID":"2026-080H","EPOCH":"2026-07-01T19:40:54.106752","CLASSIFICATION_TYPE":"U","MEAN_MOTION":15.09020248,"ECCENTRICITY":0.00154058,"INCLINATION":97.6647,"RA_OF_ASC_NODE":258.4665,"ARG_OF_PERICENTER":23.9908,"MEAN_ANOMALY":336.2035,"EPHEMERIS_TYPE":0,"NORAD_CAT_ID":68698,"ELEMENT_SET_NO":999,"REV_AT_EPOCH":1183,"BSTAR":0.00048995825,"MEAN_MOTION_DOT":0.00007709,"MEAN_MOTION_DDOT":0}]}
